[{"OBJECT_NAME":"STARLINK-31671","OBJECT_ID":"2024-073F","EPOCH":"2026-03-17T12:58:39.896256","MEAN_MOTION":15.27566895,"ECCENTRICITY":0.00012723,"INCLINATION":43.002,"RA_OF_ASC_NODE":273.9086,"ARG_OF_PERICENTER":255.0266,"MEAN_ANOMALY":105.0445,"EPHEMERIS_TYPE":0,"CLASSIFICATION_TYPE":"U","NORAD_CAT_ID":59516,"ELEMENT_SET_NO":999,"REV_AT_EPOCH":10737,"BSTAR":0.00014796846,"MEAN_MOTION_DOT":3.81e-5,"MEAN_MOTION_DDOT":0},{"OBJECT_NAME":"STARLINK-31674","OBJECT_ID":"2024-073G","EPOCH":"2026-03-17T12:23:30.776352","MEAN_MOTION":15.27550527,"ECCENTRICITY":0.00023704,"INCLINATION":43.0008,"RA_OF_ASC_NODE":273.7284,"ARG_OF_PERICENTER":271.763,"MEAN_ANOMALY":88.295,"EPHEMERIS_TYPE":0,"CLASSIFICATION_TYPE":"U","NORAD_CAT_ID":59517,"ELEMENT_SET_NO":999,"REV_AT_EPOCH":10737,"BSTAR":0.00019945914,"MEAN_MOTION_DOT":5.225e-5,"MEAN_MOTION_DDOT":0},{"OBJECT_NAME":"STARLINK-31679","OBJECT_ID":"2024-073J","EPOCH":"2026-03-17T13:46:47.919936","MEAN_MOTION":15.27568191,"ECCENTRICITY":0.0001408,"INCLINATION":43.0043,"RA_OF_ASC_NODE":262.917,"ARG_OF_PERICENTER":272.5208,"MEAN_ANOMALY":87.5482,"EPHEMERIS_TYPE":0,"CLASSIFICATION_TYPE":"U","NORAD_CAT_ID":59519,"ELEMENT_SET_NO":999,"REV_AT_EPOCH":10750,"BSTAR":0.00010443817,"MEAN_MOTION_DOT":2.612e-5,"MEAN_MOTION_DDOT":0},{"OBJECT_NAME":"STARLINK-31370","OBJECT_ID":"2024-073K","EPOCH":"2026-03-17T14:29:06.783072","MEAN_MOTION":15.27580448,"ECCENTRICITY":0.00011928,"INCLINATION":43.001,"RA_OF_ASC_NODE":273.5246,"ARG_OF_PERICENTER":250.7045,"MEAN_ANOMALY":109.3678,"EPHEMERIS_TYPE":0,"CLASSIFICATION_TYPE":"U","NORAD_CAT_ID":59520,"ELEMENT_SET_NO":999,"REV_AT_EPOCH":10738,"BSTAR":0.00010449643,"MEAN_MOTION_DOT":2.615e-5,"MEAN_MOTION_DDOT":0},{"OBJECT_NAME":"STARLINK-31404","OBJECT_ID":"2024-073L","EPOCH":"2026-03-17T14:43:55.020000","MEAN_MOTION":15.27582077,"ECCENTRICITY":0.00016672,"INCLINATION":43.0033,"RA_OF_ASC_NODE":273.6021,"ARG_OF_PERICENTER":273.4991,"MEAN_ANOMALY":86.567,"EPHEMERIS_TYPE":0,"CLASSIFICATION_TYPE":"U","NORAD_CAT_ID":59521,"ELEMENT_SET_NO":999,"REV_AT_EPOCH":10738,"BSTAR":0.00012602227,"MEAN_MOTION_DOT":3.207e-5,"MEAN_MOTION_DDOT":0},{"OBJECT_NAME":"STARLINK-31453","OBJECT_ID":"2024-073M","EPOCH":"2026-03-17T12:13:57.780192","MEAN_MOTION":15.27572092,"ECCENTRICITY":0.00019339,"INCLINATION":42.9986,"RA_OF_ASC_NODE":256.0763,"ARG_OF_PERICENTER":271.0292,"MEAN_ANOMALY":89.0338,"EPHEMERIS_TYPE":0,"CLASSIFICATION_TYPE":"U","NORAD_CAT_ID":59522,"ELEMENT_SET_NO":999,"REV_AT_EPOCH":10757,"BSTAR":0.00093153374,"MEAN_MOTION_DOT":0.00025454,"MEAN_MOTION_DDOT":0},{"OBJECT_NAME":"STARLINK-31476","OBJECT_ID":"2024-073N","EPOCH":"2026-03-17T14:23:33.861408","MEAN_MOTION":15.27578073,"ECCENTRICITY":0.00017075,"INCLINATION":43.0058,"RA_OF_ASC_NODE":273.495,"ARG_OF_PERICENTER":271.9091,"MEAN_ANOMALY":88.1565,"EPHEMERIS_TYPE":0,"CLASSIFICATION_TYPE":"U","NORAD_CAT_ID":59523,"ELEMENT_SET_NO":999,"REV_AT_EPOCH":10738,"BSTAR":0.00010468358,"MEAN_MOTION_DOT":2.619e-5,"MEAN_MOTION_DDOT":0},{"OBJECT_NAME":"STARLINK-31538","OBJECT_ID":"2024-073Q","EPOCH":"2026-03-17T13:46:33.498912","MEAN_MOTION":15.27570652,"ECCENTRICITY":0.00010143,"INCLINATION":43.0012,"RA_OF_ASC_NODE":273.3015,"ARG_OF_PERICENTER":279.2184,"MEAN_ANOMALY":80.8553,"EPHEMERIS_TYPE":0,"CLASSIFICATION_TYPE":"U","NORAD_CAT_ID":59525,"ELEMENT_SET_NO":999,"REV_AT_EPOCH":10738,"BSTAR":5.3947015e-5,"MEAN_MOTION_DOT":1.222e-5,"MEAN_MOTION_DDOT":0},{"OBJECT_NAME":"STARLINK-31564","OBJECT_ID":"2024-073R","EPOCH":"2026-03-17T13:35:27.676320","MEAN_MOTION":15.27571737,"ECCENTRICITY":0.00012431,"INCLINATION":43.0014,"RA_OF_ASC_NODE":273.2445,"ARG_OF_PERICENTER":271.1088,"MEAN_ANOMALY":88.9621,"EPHEMERIS_TYPE":0,"CLASSIFICATION_TYPE":"U","NORAD_CAT_ID":59526,"ELEMENT_SET_NO":999,"REV_AT_EPOCH":10738,"BSTAR":0.00012232378,"MEAN_MOTION_DOT":3.105e-5,"MEAN_MOTION_DDOT":0},{"OBJECT_NAME":"STARLINK-31452","OBJECT_ID":"2024-073S","EPOCH":"2026-03-17T13:04:12.540576","MEAN_MOTION":15.27580255,"ECCENTRICITY":0.00012067,"INCLINATION":43.0026,"RA_OF_ASC_NODE":273.9408,"ARG_OF_PERICENTER":255.4937,"MEAN_ANOMALY":104.5781,"EPHEMERIS_TYPE":0,"CLASSIFICATION_TYPE":"U","NORAD_CAT_ID":59527,"ELEMENT_SET_NO":999,"REV_AT_EPOCH":10737,"BSTAR":0.0001093146,"MEAN_MOTION_DOT":2.747e-5,"MEAN_MOTION_DDOT":0},{"OBJECT_NAME":"STARLINK-31513","OBJECT_ID":"2024-073U","EPOCH":"2026-03-17T13:01:12.511488","MEAN_MOTION":15.27577897,"ECCENTRICITY":0.00014658,"INCLINATION":43.0018,"RA_OF_ASC_NODE":270.4295,"ARG_OF_PERICENTER":267.3046,"MEAN_ANOMALY":92.7637,"EPHEMERIS_TYPE":0,"CLASSIFICATION_TYPE":"U","NORAD_CAT_ID":59529,"ELEMENT_SET_NO":999,"REV_AT_EPOCH":10741,"BSTAR":0.00017345523,"MEAN_MOTION_DOT":4.514e-5,"MEAN_MOTION_DDOT":0},{"OBJECT_NAME":"STARLINK-31392","OBJECT_ID":"2024-073V","EPOCH":"2026-03-17T14:12:28.861344","MEAN_MOTION":15.27566875,"ECCENTRICITY":0.00012247,"INCLINATION":43.0025,"RA_OF_ASC_NODE":273.431,"ARG_OF_PERICENTER":281.5619,"MEAN_ANOMALY":78.5095,"EPHEMERIS_TYPE":0,"CLASSIFICATION_TYPE":"U","NORAD_CAT_ID":59530,"ELEMENT_SET_NO":999,"REV_AT_EPOCH":10738,"BSTAR":0.00016495206,"MEAN_MOTION_DOT":4.278e-5,"MEAN_MOTION_DDOT":0},{"OBJECT_NAME":"STARLINK-31619","OBJECT_ID":"2024-073W","EPOCH":"2026-03-17T13:52:07.823712","MEAN_MOTION":15.27558541,"ECCENTRICITY":0.00013721,"INCLINATION":43.0013,"RA_OF_ASC_NODE":273.33,"ARG_OF_PERICENTER":274.16,"MEAN_ANOMALY":85.9095,"EPHEMERIS_TYPE":0,"CLASSIFICATION_TYPE":"U","NORAD_CAT_ID":59531,"ELEMENT_SET_NO":999,"REV_AT_EPOCH":10850,"BSTAR":0.0001520538,"MEAN_MOTION_DOT":3.922e-5,"MEAN_MOTION_DDOT":0},{"OBJECT_NAME":"STARLINK-31509","OBJECT_ID":"2024-073Y","EPOCH":"2026-03-17T13:15:18.859104","MEAN_MOTION":15.27567809,"ECCENTRICITY":0.00033561,"INCLINATION":43.0026,"RA_OF_ASC_NODE":274.0114,"ARG_OF_PERICENTER":276.3334,"MEAN_ANOMALY":83.7135,"EPHEMERIS_TYPE":0,"CLASSIFICATION_TYPE":"U","NORAD_CAT_ID":59533,"ELEMENT_SET_NO":999,"REV_AT_EPOCH":10737,"BSTAR":-9.22564e-6,"MEAN_MOTION_DOT":-5.17e-6,"MEAN_MOTION_DDOT":0},{"OBJECT_NAME":"STARLINK-31734","OBJECT_ID":"2024-074A","EPOCH":"2026-03-17T13:23:41.551584","MEAN_MOTION":15.27603428,"ECCENTRICITY":0.00017229,"INCLINATION":42.9968,"RA_OF_ASC_NODE":288.1914,"ARG_OF_PERICENTER":292.0645,"MEAN_ANOMALY":68.0023,"EPHEMERIS_TYPE":0,"CLASSIFICATION_TYPE":"U","NORAD_CAT_ID":59534,"ELEMENT_SET_NO":999,"REV_AT_EPOCH":10734,"BSTAR":-1.6092812e-5,"MEAN_MOTION_DOT":-7.05e-6,"MEAN_MOTION_DDOT":0},{"OBJECT_NAME":"STARLINK-31738","OBJECT_ID":"2024-074B","EPOCH":"2026-03-17T15:22:21.042048","MEAN_MOTION":15.27577754,"ECCENTRICITY":0.00012164,"INCLINATION":43.001,"RA_OF_ASC_NODE":294.7932,"ARG_OF_PERICENTER":275.9284,"MEAN_ANOMALY":84.1429,"EPHEMERIS_TYPE":0,"CLASSIFICATION_TYPE":"U","NORAD_CAT_ID":59535,"ELEMENT_SET_NO":999,"REV_AT_EPOCH":10727,"BSTAR":0.00019634871,"MEAN_MOTION_DOT":5.144e-5,"MEAN_MOTION_DDOT":0},{"OBJECT_NAME":"STARLINK-31721","OBJECT_ID":"2024-074C","EPOCH":"2026-03-17T07:34:35.708448","MEAN_MOTION":15.27574301,"ECCENTRICITY":0.00010645,"INCLINATION":43.006,"RA_OF_ASC_NODE":300.1961,"ARG_OF_PERICENTER":259.7519,"MEAN_ANOMALY":100.3213,"EPHEMERIS_TYPE":0,"CLASSIFICATION_TYPE":"U","NORAD_CAT_ID":59536,"ELEMENT_SET_NO":999,"REV_AT_EPOCH":10718,"BSTAR":0.00019229034,"MEAN_MOTION_DOT":5.032e-5,"MEAN_MOTION_DDOT":0},{"OBJECT_NAME":"STARLINK-31737","OBJECT_ID":"2024-074D","EPOCH":"2026-03-17T15:45:43.781472","MEAN_MOTION":15.27573119,"ECCENTRICITY":9.508e-5,"INCLINATION":43.0005,"RA_OF_ASC_NODE":298.4568,"ARG_OF_PERICENTER":269.2759,"MEAN_ANOMALY":90.7983,"EPHEMERIS_TYPE":0,"CLASSIFICATION_TYPE":"U","NORAD_CAT_ID":59537,"ELEMENT_SET_NO":999,"REV_AT_EPOCH":10723,"BSTAR":9.2928596e-5,"MEAN_MOTION_DOT":2.296e-5,"MEAN_MOTION_DDOT":0},{"OBJECT_NAME":"STARLINK-31725","OBJECT_ID":"2024-074E","EPOCH":"2026-03-17T14:00:01.999872","MEAN_MOTION":15.59790285,"ECCENTRICITY":0.00179149,"INCLINATION":42.9935,"RA_OF_ASC_NODE":278.391,"ARG_OF_PERICENTER":286.6443,"MEAN_ANOMALY":134.732,"EPHEMERIS_TYPE":0,"CLASSIFICATION_TYPE":"U","NORAD_CAT_ID":59538,"ELEMENT_SET_NO":999,"REV_AT_EPOCH":580,"BSTAR":0.0036771027,"MEAN_MOTION_DOT":0.00316884,"MEAN_MOTION_DDOT":0},{"OBJECT_NAME":"STARLINK-31539","OBJECT_ID":"2024-074F","EPOCH":"2026-03-17T14:28:13.708416","MEAN_MOTION":15.27563119,"ECCENTRICITY":4.937e-5,"INCLINATION":43.0027,"RA_OF_ASC_NODE":298.9132,"ARG_OF_PERICENTER":267.2919,"MEAN_ANOMALY":92.7877,"EPHEMERIS_TYPE":0,"CLASSIFICATION_TYPE":"U","NORAD_CAT_ID":59539,"ELEMENT_SET_NO":999,"REV_AT_EPOCH":10722,"BSTAR":6.5108562e-5,"MEAN_MOTION_DOT":1.529e-5,"MEAN_MOTION_DDOT":0},{"OBJECT_NAME":"STARLINK-31397","OBJECT_ID":"2024-074G","EPOCH":"2026-03-16T23:07:00.576768","MEAN_MOTION":15.27583503,"ECCENTRICITY":0.00014066,"INCLINATION":43.0019,"RA_OF_ASC_NODE":302.7135,"ARG_OF_PERICENTER":248.6206,"MEAN_ANOMALY":111.4496,"EPHEMERIS_TYPE":0,"CLASSIFICATION_TYPE":"U","NORAD_CAT_ID":59540,"ELEMENT_SET_NO":999,"REV_AT_EPOCH":10712,"BSTAR":4.9527575e-5,"MEAN_MOTION_DOT":1.101e-5,"MEAN_MOTION_DDOT":0},{"OBJECT_NAME":"STARLINK-31481","OBJECT_ID":"2024-074H","EPOCH":"2026-03-17T15:05:01.307904","MEAN_MOTION":15.27571114,"ECCENTRICITY":0.00011484,"INCLINATION":43.0007,"RA_OF_ASC_NODE":298.2462,"ARG_OF_PERICENTER":284.0255,"MEAN_ANOMALY":76.0469,"EPHEMERIS_TYPE":0,"CLASSIFICATION_TYPE":"U","NORAD_CAT_ID":59541,"ELEMENT_SET_NO":999,"REV_AT_EPOCH":10723,"BSTAR":0.00012324447,"MEAN_MOTION_DOT":3.13e-5,"MEAN_MOTION_DDOT":0},{"OBJECT_NAME":"STARLINK-31540","OBJECT_ID":"2024-074J","EPOCH":"2026-03-17T15:30:55.041696","MEAN_MOTION":15.27575723,"ECCENTRICITY":0.00011151,"INCLINATION":42.9994,"RA_OF_ASC_NODE":298.378,"ARG_OF_PERICENTER":280.0657,"MEAN_ANOMALY":80.0068,"EPHEMERIS_TYPE":0,"CLASSIFICATION_TYPE":"U","NORAD_CAT_ID":59542,"ELEMENT_SET_NO":999,"REV_AT_EPOCH":10723,"BSTAR":0.00011362331,"MEAN_MOTION_DOT":2.866e-5,"MEAN_MOTION_DDOT":0}]
